NORAD_CAT_ID,OBJECT_NAME,OBJECT_TYPE,EPOCH,MEAN_MOTION,ECCENTRICITY,INCLINATION,RA_OF_ASC_NODE,ARG_OF_PERICENTER,MEAN_ANOMALY,BSTAR,MEAN_MOTION_DOT,MEAN_MOTION_DDOT,TLE_LINE0,TLE_LINE1,TLE_LINE2,SEMIMAJOR_AXIS,PERIOD,APOGEE,PERIGEE,DECAYED
54203.0,STARLINK-5247,PAYLOAD,2024-06-15 18:42:12,15.08859274,0.0001562,53.2183,310.6822,77.3081,282.8086,-0.00051426,-8.468e-05,0.0,0 STARLINK-5247,1 54203U 22141AY  24167.77931260 -.00008468  00000-0 -51426-3 0  9998,2 54203  53.2183 310.6822 0001562  77.3081 282.8086 15.08859274 90608,6917.821,95.436,540.767,538.606,0.0
54203.0,STARLINK-5247,PAYLOAD,2024-06-16 13:46:50,15.08834882,0.0001826,53.219,307.1143,83.4959,276.6242,0.00012966,1.776e-05,0.0,0 STARLINK-5247,1 54203U 22141AY  24168.57419524  .00001776  00000-0  12966-3 0  9990,2 54203  53.2190 307.1143 0001826  83.4959 276.6242 15.08834882 90724,6917.896,95.438,541.024,538.498,0.0
54203.0,STARLINK-5247,PAYLOAD,2024-06-16 18:32:59,15.08844776,0.000162,53.2177,306.2214,79.0611,281.0564,0.00014233,1.978e-05,0.0,0 STARLINK-5247,1 54203U 22141AY  24168.77290980  .00001978  00000-0  14233-3 0  9998,2 54203  53.2177 306.2214 0001620  79.0611 281.0564 15.08844776 90759,6917.866,95.437,540.851,538.61,0.0
54203.0,STARLINK-5247,PAYLOAD,2024-06-17 18:23:47,15.08833544,0.0001691,53.2184,301.7598,87.2122,272.9063,0.00010776,1.427e-05,0.0,0 STARLINK-5247,1 54203U 22141AY  24169.76652401  .00001427  00000-0  10776-3 0  9995,2 54203  53.2184 301.7598 0001691  87.2122 272.9063 15.08833544 90909,6917.9,95.438,540.935,538.595,0.0
54203.0,STARLINK-5247,PAYLOAD,2024-06-18 11:53:02,15.08839666,0.0001663,53.2165,298.4903,84.5094,275.6088,8.423e-05,1.053e-05,0.0,0 STARLINK-5247,1 54203U 22141AY  24170.49516275  .00001053  00000-0  84230-4 0  9997,2 54203  53.2165 298.4903 0001663  84.5094 275.6088 15.08839666 91243,6917.881,95.438,540.897,538.596,0.0
54203.0,STARLINK-5247,PAYLOAD,2024-06-18 15:03:48,15.0884176,0.0001438,53.2177,297.8926,94.8105,265.3051,0.00012352,1.679e-05,0.0,0 STARLINK-5247,1 54203U 22141AY  24170.62763956  .00001679  00000-0  12352-3 0  9991,2 54203  53.2177 297.8926 0001438  94.8105 265.3051 15.08841760 91032,6917.875,95.437,540.735,538.745,0.0
54203.0,STARLINK-5247,PAYLOAD,2024-06-19 14:54:35,15.08841636,0.0001563,53.2186,293.4329,94.9979,265.1191,0.00010787,1.429e-05,0.0,0 STARLINK-5247,1 54203U 22141AY  24171.62124079  .00001429  00000-0  10787-3 0  9992,2 54203  53.2186 293.4329 0001563  94.9979 265.1191 15.08841636 91181,6917.875,95.437,540.822,538.659,0.0
54203.0,STARLINK-5247,PAYLOAD,2024-06-19 18:05:21,15.08841848,0.0001415,53.2175,292.8389,94.692,265.4234,0.00010259,1.345e-05,0.0,0 STARLINK-5247,1 54203U 22141AY  24171.75372127  .00001345  00000-0  10259-3 0  9996,2 54203  53.2175 292.8389 0001415  94.6920 265.4234 15.08841848 91431,6917.875,95.437,540.719,538.761,0.0
54203.0,STARLINK-5247,PAYLOAD,2024-06-20 13:10:00,15.08829229,0.0001537,53.2189,289.2687,91.4942,268.6227,-3.6476e-05,-8.68e-06,0.0,0 STARLINK-5247,1 54203U 22141AY  24172.54861739 -.00000868  00000-0 -36476-4 0  9997,2 54203  53.2189 289.2687 0001537  91.4942 268.6227 15.08829229 91325,6917.913,95.438,540.842,538.715,0.0
54203.0,STARLINK-5247,PAYLOAD,2024-06-21 00:17:41,15.08840177,0.0001422,53.2178,287.1867,93.7102,266.4053,6.1734e-05,6.95e-06,0.0,0 STARLINK-5247,1 54203U 22141AY  24173.01228869  .00000695  00000-0  61734-4 0  9992,2 54203  53.2178 287.1867 0001422  93.7102 266.4053 15.08840177 91627,6917.88,95.438,540.729,538.761,0.0
54203.0,STARLINK-5247,PAYLOAD,2024-06-21 13:00:46,15.0884783,0.0001267,53.2178,284.8122,96.2159,263.8978,0.00016188,2.29e-05,0.0,0 STARLINK-5247,1 54203U 22141AY  24173.54220622  .00002290  00000-0  16188-3 0  9994,2 54203  53.2178 284.8122 0001267  96.2159 263.8978 15.08847830 91475,6917.856,95.437,540.598,538.845,0.0
54203.0,STARLINK-5247,PAYLOAD,2024-06-22 12:51:34,15.08838609,0.0001254,53.2171,280.3521,92.4034,267.7102,0.00012596,1.717e-05,0.0,0 STARLINK-5247,1 54203U 22141AY  24174.53581230  .00001717  00000-0  12596-3 0  9991,2 54203  53.2171 280.3521 0001254  92.4034 267.7102 15.08838609 91856,6917.885,95.438,540.617,538.882,0.0
54203.0,STARLINK-5247,PAYLOAD,2024-06-22 14:26:57,15.08841343,0.0001249,53.2172,280.055,89.5854,270.5282,0.00016266,2.302e-05,0.0,0 STARLINK-5247,1 54203U 22141AY  24174.60205125  .00002302  00000-0  16266-3 0  9994,2 54203  53.2172 280.0550 0001249  89.5854 270.5282 15.08841343 91633,6917.876,95.437,540.605,538.877,0.0
54203.0,STARLINK-5247,PAYLOAD,2024-06-22 17:37:43,15.0884486,0.0001276,53.2171,279.4596,92.4969,267.6169,0.00020368,2.956e-05,0.0,0 STARLINK-5247,1 54203U 22141AY  24174.73452959  .00002956  00000-0  20368-3 0  9990,2 54203  53.2171 279.4596 0001276  92.4969 267.6169 15.08844860 91654,6917.866,95.437,540.613,538.848,0.0
54203.0,STARLINK-5247,PAYLOAD,2024-06-23 14:17:43,15.08846981,0.0001349,53.2172,275.594,91.4205,268.6942,7.6241e-05,9.26e-06,0.0,0 STARLINK-5247,1 54203U 22141AY  24175.59564755  .00000926  00000-0  76241-4 0  9990,2 54203  53.2172 275.5940 0001349  91.4205 268.6942 15.08846981 91788,6917.859,95.437,540.657,538.791,0.0
54203.0,STARLINK-5247,PAYLOAD,2024-06-23 15:53:06,15.0885003,0.0001371,53.2172,275.2962,92.1879,267.927,0.00010251,1.344e-05,0.0,0 STARLINK-5247,1 54203U 22141AY  24175.66188574  .00001344  00000-0  10251-3 0  9992,2 54203  53.2172 275.2962 0001371  92.1879 267.9270 15.08850030 92023,6917.85,95.437,540.663,538.766,0.0
54203.0,STARLINK-5247,PAYLOAD,2024-06-24 12:33:07,15.08845889,0.0001302,53.2165,271.4301,91.1485,268.9656,9.1993e-05,1.177e-05,0.0,0 STARLINK-5247,1 54203U 22141AY  24176.52300634  .00001177  00000-0  91993-4 0  9998,2 54203  53.2165 271.4301 0001302  91.1485 268.9656 15.08845889 92155,6917.862,95.437,540.628,538.827,0.0
54203.0,STARLINK-5247,PAYLOAD,2024-06-24 14:08:30,15.08848305,0.0001285,53.2169,271.133,89.0884,271.0256,0.00012563,1.713e-05,0.0,0 STARLINK-5247,1 54203U 22141AY  24176.58924521  .00001713  00000-0  12563-3 0  9992,2 54203  53.2169 271.1330 0001285  89.0884 271.0256 15.08848305 91939,6917.855,95.437,540.609,538.831,0.0
54203.0,STARLINK-5247,PAYLOAD,2024-06-25 10:48:31,15.08840831,0.0001272,53.2167,267.2673,87.5904,272.5234,-5.1441e-06,-3.7e-06,0.0,0 STARLINK-5247,1 54203U 22141AY  24177.45036911 -.00000370  00000-0 -51441-5 0  9996,2 54203  53.2167 267.2673 0001272  87.5904 272.5234 15.08840831 92293,6917.878,95.438,540.623,538.863,0.0
54203.0,STARLINK-5247,PAYLOAD,2024-06-25 13:59:17,15.0884529,0.0001271,53.2169,266.6717,91.4931,268.6207,4.7062e-05,4.61e-06,0.0,0 STARLINK-5247,1 54203U 22141AY  24177.58284640  .00000461  00000-0  47062-4 0  9996,2 54203  53.2169 266.6717 0001271  91.4931 268.6207 15.08845290 92087,6917.864,95.437,540.608,538.85,0.0
54203.0,STARLINK-5247,PAYLOAD,2024-06-26 10:39:18,15.08847104,0.0001377,53.2165,262.8039,102.9433,257.1713,0.00010059,1.314e-05,0.0,0 STARLINK-5247,1 54203U 22141AY  24178.44396475  .00001314  00000-0  10059-3 0  9995,2 54203  53.2165 262.8039 0001377 102.9433 257.1713 15.08847104 92216,6917.859,95.437,540.676,538.771,0.0
54203.0,STARLINK-5247,PAYLOAD,2024-06-27 12:05:28,15.08844015,0.0001121,53.2157,258.0485,100.7125,259.3994,-1.1106e-05,-4.65e-06,0.0,0 STARLINK-5247,1 54203U 22141AY  24179.50380633 -.00000465  00000-0 -11106-4 0  9995,2 54203  53.2157 258.0485 0001121 100.7125 259.3994 15.08844015 92606,6917.868,95.437,540.509,538.958,0.0
54203.0,STARLINK-5247,PAYLOAD,2024-06-27 13:40:52,15.08841911,0.0001261,53.2154,257.7508,99.9071,260.2063,9.5847e-05,1.238e-05,0.0,0 STARLINK-5247,1 54203U 22141AY  24179.57004751  .00001238  00000-0  95847-4 0  9997,2 54203  53.2154 257.7508 0001261  99.9071 260.2063 15.08841911 92384,6917.875,95.437,540.612,538.867,0.0
54203.0,STARLINK-5247,PAYLOAD,2024-06-28 13:31:38,15.08845195,0.0001638,53.2158,253.2886,113.8756,246.2408,0.00015665,2.206e-05,0.0,0 STARLINK-5247,1 54203U 22141AY  24180.56364564  .00002206  00000-0  15665-3 0  9994,2 54203  53.2158 253.2886 0001638 113.8756 246.2408 15.08845195 92534,6917.865,95.437,540.863,538.596,0.0
54203.0,STARLINK-5247,PAYLOAD,2024-06-29 00:39:21,15.08837431,0.0001459,53.216,251.2071,119.7803,240.3334,3.742e-05,3.08e-06,0.0,0 STARLINK-5247,1 54203U 22141AY  24181.02732916  .00000308  00000-0  37420-4 0  9991,2 54203  53.2160 251.2071 0001459 119.7803 240.3334 15.08837431 92830,6917.888,95.438,540.763,538.744,0.0
54203.0,STARLINK-5247,PAYLOAD,2024-06-29 13:22:26,15.0884072,0.0001225,53.2165,248.8309,102.8861,257.2268,7.9354e-05,9.75e-06,0.0,0 STARLINK-5247,1 54203U 22141AY  24181.55725014  .00000975  00000-0  79354-4 0  9992,2 54203  53.2165 248.8309 0001225 102.8861 257.2268 15.08840720 92680,6917.878,95.438,540.591,538.896,0.0
54203.0,STARLINK-5247,PAYLOAD,2024-06-29 21:19:17,15.08887571,5.68e-05,53.2161,247.3443,112.064,248.0413,0.0004668,7.159e-05,0.0,0 STARLINK-5247,1 54203U 22141AY  24181.88840273  .00007159  00000-0  46680-3 0  9999,2 54203  53.2161 247.3443 0000568 112.0640 248.0413 15.08887571 92737,6917.735,95.435,539.993,539.207,0.0
54203.0,STARLINK-5247,PAYLOAD,2024-06-30 10:02:28,15.08828731,0.0001347,53.2158,244.9642,102.3243,257.79,-0.0001584,-2.807e-05,0.0,0 STARLINK-5247,1 54203U 22141AY  24182.41838034 -.00002807  00000-0 -15840-3 0  9992,2 54203  53.2158 244.9642 0001347 102.3243 257.7900 15.08828731 93040,6917.915,95.438,540.712,538.848,0.0
54203.0,STARLINK-5247,PAYLOAD,2024-06-30 13:13:14,15.0882247,0.0001469,53.2158,244.3681,101.7189,258.3968,-0.00015688,-2.783e-05,0.0,0 STARLINK-5247,1 54203U 22141AY  24182.55086480 -.00002783  00000-0 -15688-3 0  9990,2 54203  53.2158 244.3681 0001469 101.7189 258.3968 15.08822470 92835,6917.934,95.439,540.815,538.783,0.0
54203.0,STARLINK-5247,PAYLOAD,2024-06-30 21:10:10,15.08829707,0.0001366,53.2154,242.883,97.3789,262.7359,-0.00013888,-2.497e-05,0.0,0 STARLINK-5247,1 54203U 22141AY  24182.88206284 -.00002497  00000-0 -13888-3 0  9994,2 54203  53.2154 242.8830 0001366  97.3789 262.7359 15.08829707 92880,6917.912,95.438,540.722,538.832,0.0
